[{"OBJECT_NAME":"KUIPER-00268","OBJECT_ID":"2026-030AC","EPOCH":"2026-03-05T00:10:01.223904","MEAN_MOTION":15.35796041,"ECCENTRICITY":0.0002453,"INCLINATION":51.8846,"RA_OF_ASC_NODE":241.6907,"ARG_OF_PERICENTER":35.7027,"MEAN_ANOMALY":324.4123,"EPHEMERIS_TYPE":0,"CLASSIFICATION_TYPE":"U","NORAD_CAT_ID":67790,"ELEMENT_SET_NO":999,"REV_AT_EPOCH":437,"BSTAR":0.0010541,"MEAN_MOTION_DOT":0.00037075,"MEAN_MOTION_DDOT":0},{"OBJECT_NAME":"KUIPER-00270","OBJECT_ID":"2026-030AD","EPOCH":"2026-03-04T23:02:58.471008","MEAN_MOTION":15.34436452,"ECCENTRICITY":0.0010049,"INCLINATION":51.8808,"RA_OF_ASC_NODE":242.1152,"ARG_OF_PERICENTER":43.4412,"MEAN_ANOMALY":316.7364,"EPHEMERIS_TYPE":0,"CLASSIFICATION_TYPE":"U","NORAD_CAT_ID":67791,"ELEMENT_SET_NO":999,"REV_AT_EPOCH":436,"BSTAR":0.00079052,"MEAN_MOTION_DOT":0.00026518,"MEAN_MOTION_DDOT":0},{"OBJECT_NAME":"KUIPER-00274","OBJECT_ID":"2026-030AE","EPOCH":"2026-03-05T04:21:09.733824","MEAN_MOTION":15.31367467,"ECCENTRICITY":0.001867,"INCLINATION":51.8814,"RA_OF_ASC_NODE":241.3433,"ARG_OF_PERICENTER":57.2432,"MEAN_ANOMALY":303.0348,"EPHEMERIS_TYPE":0,"CLASSIFICATION_TYPE":"U","NORAD_CAT_ID":67792,"ELEMENT_SET_NO":999,"REV_AT_EPOCH":439,"BSTAR":-0.0011184,"MEAN_MOTION_DOT":-0.0003479,"MEAN_MOTION_DDOT":0},{"OBJECT_NAME":"KUIPER-00275","OBJECT_ID":"2026-030AF","EPOCH":"2026-03-04T22:59:14.364960","MEAN_MOTION":15.34518049,"ECCENTRICITY":0.0008964,"INCLINATION":51.8843,"RA_OF_ASC_NODE":242.108,"ARG_OF_PERICENTER":39.4841,"MEAN_ANOMALY":320.6796,"EPHEMERIS_TYPE":0,"CLASSIFICATION_TYPE":"U","NORAD_CAT_ID":67793,"ELEMENT_SET_NO":999,"REV_AT_EPOCH":436,"BSTAR":0.0010466,"MEAN_MOTION_DOT":0.00035353,"MEAN_MOTION_DDOT":0},{"OBJECT_NAME":"KUIPER-00276","OBJECT_ID":"2026-030AG","EPOCH":"2026-03-05T04:26:54.370464","MEAN_MOTION":15.31368165,"ECCENTRICITY":0.0018844,"INCLINATION":51.8807,"RA_OF_ASC_NODE":241.3676,"ARG_OF_PERICENTER":54.6829,"MEAN_ANOMALY":305.5914,"EPHEMERIS_TYPE":0,"CLASSIFICATION_TYPE":"U","NORAD_CAT_ID":67794,"ELEMENT_SET_NO":999,"REV_AT_EPOCH":439,"BSTAR":0.0010384,"MEAN_MOTION_DOT":0.00031853,"MEAN_MOTION_DDOT":0},{"OBJECT_NAME":"KUIPER-00279","OBJECT_ID":"2026-030AH","EPOCH":"2026-03-04T22:49:46.227936","MEAN_MOTION":15.35198982,"ECCENTRICITY":0.0006441,"INCLINATION":51.8801,"RA_OF_ASC_NODE":242.0547,"ARG_OF_PERICENTER":34.4125,"MEAN_ANOMALY":325.7277,"EPHEMERIS_TYPE":0,"CLASSIFICATION_TYPE":"U","NORAD_CAT_ID":67795,"ELEMENT_SET_NO":999,"REV_AT_EPOCH":436,"BSTAR":0.00090688,"MEAN_MOTION_DOT":0.00031226,"MEAN_MOTION_DDOT":0}]
